SAR-LUPE 2              
1 31797U 07030A   26201.92857949  .00007666  00000+0  11796-3 0  9992
2 31797  98.1059 310.6765 0005244 216.8392 143.2500 15.54559307 62170
SAPPHIRE                
1 39088U 13009C   26201.90380664  .00000060  00000+0  35924-4 0  9990
2 39088  98.4280  20.5618 0011915 143.8005 216.3989 14.35248570701411
PRAETORIAN SDA_602      
1 65565U 25203A   26201.78542242  .00000082  00000+0  63149-4 0  9990
2 65565  81.3051 339.6619 0007141 104.9124 255.2824 13.83888594 43347
PRAETORIAN SDA_603      
1 65566U 25203B   26201.88570623  .00000135  00000+0  11057-3 0  9995
2 65566  81.3059 339.4898 0010793 100.6155 259.6218 13.83961891 43366
PRAETORIAN SDA_604      
1 65567U 25203C   26201.85467603  .00000093  00000+0  74550-4 0  9997
2 65567  81.3073 339.9840 0006672 108.6980 251.4900 13.83050859 43338
PRAETORIAN SDA_605      
1 65568U 25203D   26201.81375120  .00000095  00000+0  75347-4 0  9993
2 65568  81.3038 339.6591 0009373  99.8901 260.3314 13.83200878 43342
PRAETORIAN SDA_606      
1 65569U 25203E   26201.87126176  .00000045  00000+0  30142-4 0  9994
2 65569  81.3074 339.8462 0007239 103.1806 257.0159 13.83200315 43340
PRAETORIAN SDA_607      
1 65570U 25203F   26201.78702470  .00000094  00000+0  73828-4 0  9995
2 65570  81.3060 339.5383 0010043 101.2715 258.9570 13.83759000 43359
PRAETORIAN SDA_608      
1 65571U 25203G   26201.91390846  .00000084  00000+0  65179-4 0  9990
2 65571  81.3027 339.5821 0007150 107.0692 253.1248 13.83820120 43354
PRAETORIAN SDA_609      
1 65572U 25203H   26201.90926899  .00000140  00000+0  11503-3 0  9997
2 65572  81.3068 339.5635 0008008 101.6453 258.5603 13.84212015 43365
PRAETORIAN SDA_610      
1 65573U 25203J   26201.89700869  .00000097  00000+0  77211-4 0  9993
2 65573  81.3029 339.5635 0007875 106.5095 253.6927 13.83529026 43356
PRAETORIAN SDA_611      
1 65574U 25203K   26201.90681588 -.00000104  00000+0 -10583-3 0  9991
2 65574  81.3033 339.7391 0006756 110.7126 249.4755 13.83311277 43340
PRAETORIAN SDA_612      
1 65575U 25203L   26201.85435171  .00000149  00000+0  12131-3 0  9999
2 65575  81.3051 339.2913 0010394 101.3427 258.8899 13.85041711 43370
PRAETORIAN SDA_613      
1 65576U 25203M   26201.85444882  .00000083  00000+0  65653-4 0  9994
2 65576  81.3020 339.8105 0006822 102.3418 257.8502 13.82768369 43336
PRAETORIAN SDA_614      
1 65577U 25203N   26201.84989056  .00000058  00000+0  40840-4 0  9994
2 65577  81.3034 339.3815 0008290 100.0571 260.1521 13.84778975 43379
PRAETORIAN SDA_615      
1 65578U 25203P   26201.90732876  .00000156  00000+0  12849-3 0  9994
2 65578  81.3042 339.3133 0010204 100.1160 260.1149 13.84438841 43376
PRAETORIAN SDA_616      
1 65579U 25203Q   26201.83470118  .00000105  00000+0  84501-4 0  9994
2 65579  81.3085 339.9732 0006657 109.0713 251.1165 13.83270521 43336
PRAETORIAN SDA_617      
1 65580U 25203R   26201.78683683  .00000072  00000+0  54442-4 0  9997
2 65580  81.3057 339.8457 0008534 100.5136 259.6982 13.83152703 43332
PRAETORIAN SDA_618      
1 65581U 25203S   26201.87555257  .00000137  00000+0  11221-3 0  9992
2 65581  81.3041 339.2765 0010899 103.0450 257.1924 13.84226246 43374
PRAETORIAN SDA_619      
1 65582U 25203T   26201.85237933  .00000117  00000+0  95215-4 0  9993
2 65582  81.3065 339.6317 0009366 101.0451 259.1759 13.83806334 43980
PRAETORIAN SDA_620      
1 65583U 25203U   26201.88992312  .00000147  00000+0  12317-3 0  9990
2 65583  81.3053 339.6330 0008649  98.4354 261.7783 13.83207848 43359
PRAETORIAN SDA_621      
1 65584U 25203V   26201.85422375  .00000090  00000+0  70218-4 0  9997
2 65584  81.3040 339.5605 0008523  95.6836 264.5292 13.83804553 43357
PRAETORIAN SDA_601      
1 65585U 25203W   26201.91260473 -.00000044  00000+0 -50813-4 0  9994
2 65585  81.3062 339.8419 0006732 112.0244 248.1628 13.83170702 43347
VICTUS HAZE PUMA        
1 69646U 26142A   26201.83709822  .00001963  00000+0  90563-4 0  9991
2 69646  97.4457  99.0756 0026522 246.3407 113.5045 15.21144501  4780
