OBJECT_NAME,OBJECT_ID,EPOCH,MEAN_MOTION,ECCENTRICITY,INCLINATION,RA_OF_ASC_NODE,ARG_OF_PERICENTER,MEAN_ANOMALY,EPHEMERIS_TYPE,CLASSIFICATION_TYPE,NORAD_CAT_ID,ELEMENT_SET_NO,REV_AT_EPOCH,BSTAR,MEAN_MOTION_DOT,MEAN_MOTION_DDOT
SAR-LUPE 2,2007-030A,2026-07-20T22:17:09.267936,15.54559307,.00052448,98.1059,310.6765,216.8392,143.2500,0,U,31797,999,6217,.11796215E-3,.7666E-4,0
SAPPHIRE,2013-009C,2026-07-20T21:41:28.893696,14.35248570,.00119152,98.4280,20.5618,143.8005,216.3989,0,U,39088,999,70141,.35923745E-4,.6E-6,0
PRAETORIAN SDA_602,2025-203A,2026-07-20T18:51:00.497088,13.83888594,.00071415,81.3051,339.6619,104.9124,255.2824,0,U,65565,999,4334,.631495E-4,.82E-6,0
PRAETORIAN SDA_603,2025-203B,2026-07-20T21:15:25.018272,13.83961891,.0010793,81.3059,339.4898,100.6155,259.6218,0,U,65566,999,4336,.11056894E-3,.135E-5,0
PRAETORIAN SDA_604,2025-203C,2026-07-20T20:30:44.008992,13.83050859,.00066729,81.3073,339.9840,108.6980,251.4900,0,U,65567,999,4333,.74549857E-4,.93E-6,0
PRAETORIAN SDA_605,2025-203D,2026-07-20T19:31:48.103680,13.83200878,.00093738,81.3038,339.6591,99.8901,260.3314,0,U,65568,999,4334,.75347153E-4,.95E-6,0
PRAETORIAN SDA_606,2025-203E,2026-07-20T20:54:37.016064,13.83200315,.00072396,81.3074,339.8462,103.1806,257.0159,0,U,65569,999,4334,.30142141E-4,.45E-6,0
PRAETORIAN SDA_607,2025-203F,2026-07-20T18:53:18.934080,13.83759000,.00100432,81.3060,339.5383,101.2715,258.9570,0,U,65570,999,4335,.73827702E-4,.94E-6,0
PRAETORIAN SDA_608,2025-203G,2026-07-20T21:56:01.690944,13.83820120,.000715,81.3027,339.5821,107.0692,253.1248,0,U,65571,999,4335,.65179246E-4,.84E-6,0
PRAETORIAN SDA_609,2025-203H,2026-07-20T21:49:20.840736,13.84212015,.0008008,81.3068,339.5635,101.6453,258.5603,0,U,65572,999,4336,.11503463E-3,.14E-5,0
PRAETORIAN SDA_610,2025-203J,2026-07-20T21:31:41.550816,13.83529026,.00078756,81.3029,339.5635,106.5095,253.6927,0,U,65573,999,4335,.77211051E-4,.97E-6,0
PRAETORIAN SDA_611,2025-203K,2026-07-20T21:45:48.892032,13.83311277,.00067567,81.3033,339.7391,110.7126,249.4755,0,U,65574,999,4334,-.1058332E-3,-.104E-5,0
PRAETORIAN SDA_612,2025-203L,2026-07-20T20:30:15.987744,13.85041711,.00103948,81.3051,339.2913,101.3427,258.8899,0,U,65575,999,4337,.1213087E-3,.149E-5,0
PRAETORIAN SDA_613,2025-203M,2026-07-20T20:30:24.378048,13.82768369,.00068226,81.3020,339.8105,102.3418,257.8502,0,U,65576,999,4333,.65653005E-4,.83E-6,0
PRAETORIAN SDA_614,2025-203N,2026-07-20T20:23:50.544384,13.84778975,.00082903,81.3034,339.3815,100.0571,260.1521,0,U,65577,999,4337,.40840027E-4,.58E-6,0
PRAETORIAN SDA_615,2025-203P,2026-07-20T21:46:33.204864,13.84438841,.00102049,81.3042,339.3133,100.1160,260.1149,0,U,65578,999,4337,.12848668E-3,.156E-5,0
PRAETORIAN SDA_616,2025-203Q,2026-07-20T20:01:58.181952,13.83270521,.00066577,81.3085,339.9732,109.0713,251.1165,0,U,65579,999,4333,.84501447E-4,.105E-5,0
PRAETORIAN SDA_617,2025-203R,2026-07-20T18:53:02.702112,13.83152703,.00085343,81.3057,339.8457,100.5136,259.6982,0,U,65580,999,4333,.54441905E-4,.72E-6,0
PRAETORIAN SDA_618,2025-203S,2026-07-20T21:00:47.742048,13.84226246,.00108996,81.3041,339.2765,103.0450,257.1924,0,U,65581,999,4337,.11221328E-3,.137E-5,0
PRAETORIAN SDA_619,2025-203T,2026-07-20T20:27:25.574112,13.83806334,.00093665,81.3065,339.6317,101.0451,259.1759,0,U,65582,999,4398,.95215475E-4,.117E-5,0
PRAETORIAN SDA_620,2025-203U,2026-07-20T21:21:29.357568,13.83207848,.00086494,81.3053,339.6330,98.4354,261.7783,0,U,65583,999,4335,.12317011E-3,.147E-5,0
PRAETORIAN SDA_621,2025-203V,2026-07-20T20:30:04.932000,13.83804553,.00085232,81.3040,339.5605,95.6836,264.5292,0,U,65584,999,4335,.70218434E-4,.9E-6,0
PRAETORIAN SDA_601,2025-203W,2026-07-20T21:54:09.048672,13.83170702,.0006732,81.3062,339.8419,112.0244,248.1628,0,U,65585,999,4334,-.50813163E-4,-.44E-6,0
VICTUS HAZE PUMA,2026-142A,2026-07-20T20:05:25.286208,15.21144501,.00265225,97.4457,99.0756,246.3407,113.5045,0,U,69646,999,478,.9056283E-4,.1963E-4,0
